NORAD_CAT_ID,OBJECT_NAME,OBJECT_TYPE,EPOCH,MEAN_MOTION,ECCENTRICITY,INCLINATION,RA_OF_ASC_NODE,ARG_OF_PERICENTER,MEAN_ANOMALY,BSTAR,MEAN_MOTION_DOT,MEAN_MOTION_DDOT,TLE_LINE0,TLE_LINE1,TLE_LINE2,SEMIMAJOR_AXIS,PERIOD,APOGEE,PERIGEE,DECAYED
55647.0,STARLINK-5510,PAYLOAD,2023-09-02 23:56:17,14.98336805,0.0003341,70.0012,340.6639,272.9264,87.1513,-2.9433e-05,-4.44e-06,0.0,0 STARLINK-5510,1 55647U 23021V   23245.99742505 -.00000444  00000-0 -29433-4 0  9991,2 55647  70.0012 340.6639 0003341 272.9264  87.1513 14.98336805 30884,6950.172,96.107,574.359,569.715,0.0
55647.0,STARLINK-5510,PAYLOAD,2023-09-03 09:33:06,14.98330792,0.0003319,70.0011,339.6534,270.3151,89.7627,-7.7897e-05,-1.022e-05,0.0,0 STARLINK-5510,1 55647U 23021V   23246.39798895 -.00001022  00000-0 -77897-4 0  9999,2 55647  70.0011 339.6534 0003319 270.3151  89.7627 14.98330792 31241,6950.19,96.107,574.362,569.749,0.0
55647.0,STARLINK-5510,PAYLOAD,2023-09-03 12:45:22,14.98323628,0.0002335,70.0038,339.3187,261.797,98.2924,-4.7121e-05,-6.55e-06,0.0,0 STARLINK-5510,1 55647U 23021V   23246.53151232 -.00000655  00000-0 -47121-4 0  9991,2 55647  70.0038 339.3187 0002335 261.7970  98.2924 14.98323628 30964,6950.213,96.107,573.7,570.455,0.0
55647.0,STARLINK-5510,PAYLOAD,2023-09-04 12:47:23,14.9832504,0.0003023,70.003,336.7917,268.6229,91.4584,-0.00010873,-1.39e-05,0.0,0 STARLINK-5510,1 55647U 23021V   23247.53291491 -.00001390  00000-0 -10873-3 0  9994,2 55647  70.0030 336.7917 0003023 268.6229  91.4584 14.98325040 31414,6950.208,96.107,574.174,569.972,0.0
55647.0,STARLINK-5510,PAYLOAD,2023-09-05 00:00:20,14.98328482,0.000321,70.0017,335.6147,269.551,90.5281,-4.0828e-05,-5.8e-06,0.0,0 STARLINK-5510,1 55647U 23021V   23248.00023176 -.00000580  00000-0 -40828-4 0  9994,2 55647  70.0017 335.6147 0003210 269.5510  90.5281 14.98328482 31184,6950.198,96.107,574.294,569.832,0.0
55647.0,STARLINK-5510,PAYLOAD,2023-09-05 22:26:12,14.98329347,0.0003088,70.0018,333.2588,263.1214,96.9594,0.0001084,1.201e-05,0.0,0 STARLINK-5510,1 55647U 23021V   23248.93486740  .00001201  00000-0  10840-3 0  9995,2 55647  70.0018 333.2588 0003088 263.1214  96.9594 14.98329347 31326,6950.195,96.107,574.206,569.914,0.0
55647.0,STARLINK-5510,PAYLOAD,2023-09-06 22:28:13,14.98336072,0.0003394,70.0012,330.733,267.9331,92.1439,3.8376e-06,-4.7e-07,0.0,0 STARLINK-5510,1 55647U 23021V   23249.93626419 -.00000047  00000-0  38376-5 0  9999,2 55647  70.0012 330.7330 0003394 267.9331  92.1439 14.98336072 31474,6950.174,96.107,574.398,569.68,0.0
55647.0,STARLINK-5510,PAYLOAD,2023-09-07 08:05:02,14.98327807,0.0003352,70.0011,329.7231,264.7158,95.3619,-5.5491e-05,-7.55e-06,0.0,0 STARLINK-5510,1 55647U 23021V   23250.33683063 -.00000755  00000-0 -55491-4 0  9996,2 55647  70.0011 329.7231 0003352 264.7158  95.3619 14.98327807 31535,6950.2,96.107,574.394,569.735,0.0
55647.0,STARLINK-5510,PAYLOAD,2023-09-07 09:41:10,14.98328135,0.000346,70.0005,329.5543,268.982,91.0942,-5.6587e-05,-7.68e-06,0.0,0 STARLINK-5510,1 55647U 23021V   23250.40359056 -.00000768  00000-0 -56587-4 0  9997,2 55647  70.0005 329.5543 0003460 268.9820  91.0942 14.98328135 31845,6950.199,96.107,574.468,569.659,0.0
55647.0,STARLINK-5510,PAYLOAD,2023-09-07 16:05:42,14.98332986,0.0003499,70.0001,328.8804,269.9179,90.1579,-1.1935e-05,-2.35e-06,0.0,0 STARLINK-5510,1 55647U 23021V   23250.67062523 -.00000235  00000-0 -11935-4 0  9993,2 55647  70.0001 328.8804 0003499 269.9179  90.1579 14.98332986 31882,6950.184,96.107,574.481,569.617,0.0
55647.0,STARLINK-5510,PAYLOAD,2023-09-08 12:55:27,14.98377989,0.0003607,70.0008,326.6929,262.4657,97.6092,-0.00077667,-9.36e-05,0.0,0 STARLINK-5510,1 55647U 23021V   23251.53851351 -.00009360  00000-0 -77667-3 0  9995,2 55647  70.0008 326.6929 0003607 262.4657  97.6092 14.98377989 32013,6950.044,96.104,574.416,569.403,0.0
55647.0,STARLINK-5510,PAYLOAD,2023-09-08 17:43:50,14.9831543,0.0003314,70.0005,326.1874,266.2645,93.8136,0.00029296,3.403e-05,0.0,0 STARLINK-5510,1 55647U 23021V   23251.73878342  .00003403  00000-0  29296-3 0  9991,2 55647  70.0005 326.1874 0003314 266.2645  93.8136 14.98315430 31747,6950.238,96.108,574.406,569.8,0.0
55647.0,STARLINK-5510,PAYLOAD,2023-09-09 12:57:28,14.98326039,0.0003065,70.0009,324.1677,262.8249,97.2562,3.283e-05,2.99e-06,0.0,0 STARLINK-5510,1 55647U 23021V   23252.53990942  .00000299  00000-0  32830-4 0  9990,2 55647  70.0009 324.1677 0003065 262.8249  97.2562 14.98326039 32160,6950.205,96.107,574.2,569.94,0.0
55647.0,STARLINK-5510,PAYLOAD,2023-09-09 22:34:16,14.98328849,0.0003257,70.0009,323.1575,268.2959,91.7827,4.1687e-05,4.04e-06,0.0,0 STARLINK-5510,1 55647U 23021V   23252.94046761  .00000404  00000-0  41687-4 0  9994,2 55647  70.0009 323.1575 0003257 268.2959  91.7827 14.98328849 31924,6950.196,96.107,574.325,569.798,0.0
55647.0,STARLINK-5510,PAYLOAD,2023-09-10 12:59:28,14.98333086,0.0003299,70.0005,321.6429,269.6022,90.4759,7.2339e-05,7.7e-06,0.0,0 STARLINK-5510,1 55647U 23021V   23253.54130362  .00000770  00000-0  72339-4 0  9996,2 55647  70.0005 321.6429 0003299 269.6022  90.4759 14.98333086 32316,6950.183,96.107,574.341,569.755,0.0
55647.0,STARLINK-5510,PAYLOAD,2023-09-10 14:35:36,14.98334075,0.0003298,70.0005,321.4746,269.6429,90.4352,8.1719e-05,8.82e-06,0.0,0 STARLINK-5510,1 55647U 23021V   23253.60806262  .00000882  00000-0  81719-4 0  9998,2 55647  70.0005 321.4746 0003298 269.6429  90.4352 14.98334075 32022,6950.18,96.107,574.337,569.753,0.0
55647.0,STARLINK-5510,PAYLOAD,2023-09-11 09:49:13,14.98326439,0.0003263,70.0005,319.4546,269.3382,90.7403,1.9657e-05,1.42e-06,0.0,0 STARLINK-5510,1 55647U 23021V   23254.40918913  .00000142  00000-0  19657-4 0  9995,2 55647  70.0005 319.4546 0003263 269.3382  90.7403 14.98326439 32142,6950.204,96.107,574.337,569.801,0.0
55647.0,STARLINK-5510,PAYLOAD,2023-09-11 13:01:29,14.98329977,0.0003305,70.0005,319.1183,269.8611,90.217,1.778e-05,1.19e-06,0.0,0 STARLINK-5510,1 55647U 23021V   23254.54270697  .00000119  00000-0  17780-4 0  9999,2 55647  70.0005 319.1183 0003305 269.8611  90.2170 14.98329977 32464,6950.193,96.107,574.355,569.761,0.0
55647.0,STARLINK-5510,PAYLOAD,2023-09-12 09:51:14,14.9833347,0.0003231,70.0006,316.9302,271.1754,88.9035,-4.5369e-06,-1.47e-06,0.0,0 STARLINK-5510,1 55647U 23021V   23255.41058440 -.00000147  00000-0 -45369-5 0  9994,2 55647  70.0006 316.9302 0003231 271.1754  88.9035 14.98333470 32293,6950.182,96.107,574.293,569.802,0.0
55647.0,STARLINK-5510,PAYLOAD,2023-09-12 13:03:30,14.9833504,0.0003184,70.0006,316.5941,268.2531,91.8263,1.7575e-05,1.17e-06,0.0,0 STARLINK-5510,1 55647U 23021V   23255.54410225  .00000117  00000-0  17575-4 0  9993,2 55647  70.0006 316.5941 0003184 268.2531  91.8263 14.98335040 32612,6950.177,96.107,574.255,569.829,0.0
55647.0,STARLINK-5510,PAYLOAD,2023-09-12 14:39:38,14.98335693,0.0003182,70.0006,316.4258,268.2783,91.8012,2.4699e-05,2.02e-06,0.0,0 STARLINK-5510,1 55647U 23021V   23255.61086142  .00000202  00000-0  24699-4 0  9998,2 55647  70.0006 316.4258 0003182 268.2783  91.8012 14.98335693 32626,6950.175,96.107,574.252,569.829,0.0
55647.0,STARLINK-5510,PAYLOAD,2023-09-13 09:53:14,14.98335149,0.0003243,70.0003,314.4057,268.2082,91.8706,6.6976e-05,7.06e-06,0.0,0 STARLINK-5510,1 55647U 23021V   23256.41197823  .00000706  00000-0  66976-4 0  9999,2 55647  70.0003 314.4057 0003243 268.2082  91.8706 14.98335149 32444,6950.177,96.107,574.296,569.788,0.0
55647.0,STARLINK-5510,PAYLOAD,2023-09-13 13:05:30,14.9833562,0.0003148,70.0006,314.0685,267.4539,92.626,0.00012806,1.436e-05,0.0,0 STARLINK-5510,1 55647U 23021V   23256.54549565  .00001436  00000-0  12806-3 0  9990,2 55647  70.0006 314.0685 0003148 267.4539  92.6260 14.98335620 32765,6950.176,96.107,574.228,569.853,0.0
55647.0,STARLINK-5510,PAYLOAD,2023-09-14 03:30:44,14.9831228,0.0002873,70.0004,312.5535,266.3411,93.7419,9.0786e-05,9.9e-06,0.0,0 STARLINK-5510,1 55647U 23021V   23257.14635263  .00000990  00000-0  90786-4 0  9996,2 55647  70.0004 312.5535 0002873 266.3411  93.7419 14.98312280 32553,6950.248,96.108,574.109,570.116,0.0
55647.0,STARLINK-5510,PAYLOAD,2023-09-14 13:07:33,14.98313561,0.0003034,70.0006,311.5442,264.9322,95.1491,-0.00016238,-2.029e-05,0.0,0 STARLINK-5510,1 55647U 23021V   23257.54692054 -.00002029  00000-0 -16238-3 0  9997,2 55647  70.0006 311.5442 0003034 264.9322  95.1491 14.98313561 32915,6950.244,96.108,574.217,570.0,0.0
55647.0,STARLINK-5510,PAYLOAD,2023-09-14 21:08:14,14.98305249,0.0003167,70.0002,310.7009,278.2392,81.8408,0.0001132,1.257e-05,0.0,0 STARLINK-5510,1 55647U 23021V   23257.88072339  .00001257  00000-0  11320-3 0  9999,2 55647  70.0002 310.7009 0003167 278.2392  81.8408 14.98305249 32962,6950.269,96.109,574.336,569.933,0.0
55647.0,STARLINK-5510,PAYLOAD,2023-09-15 03:32:46,14.98321022,0.0003346,70.0005,310.0294,271.0283,89.0493,-0.00013282,-1.677e-05,0.0,0 STARLINK-5510,1 55647U 23021V   23258.14775846 -.00001677  00000-0 -13282-3 0  9999,2 55647  70.0005 310.0294 0003346 271.0283  89.0493 14.98321022 32706,6950.221,96.108,574.411,569.76,0.0
55647.0,STARLINK-5510,PAYLOAD,2023-09-15 13:09:34,14.98317745,0.000247,70.0025,309.021,241.105,118.9861,-7.0739e-05,-9.37e-06,0.0,0 STARLINK-5510,1 55647U 23021V   23258.54832107 -.00000937  00000-0 -70739-4 0  9996,2 55647  70.0025 309.0210 0002470 241.1050 118.9861 14.98317745 33069,6950.231,96.108,573.812,570.379,0.0
55647.0,STARLINK-5510,PAYLOAD,2023-09-16 01:58:38,14.9832093,0.000347,69.9993,307.6713,272.4734,87.6028,0.00018874,2.159e-05,0.0,0 STARLINK-5510,1 55647U 23021V   23259.08239328  .00002159  00000-0  18874-3 0  9999,2 55647  69.9993 307.6713 0003470 272.4734  87.6028 14.98320930 32841,6950.221,96.108,574.498,569.674,0.0
55647.0,STARLINK-5510,PAYLOAD,2023-09-16 13:11:34,14.98327486,0.0003449,69.9994,306.4933,273.0561,87.0203,0.00023303,2.688e-05,0.0,0 STARLINK-5510,1 55647U 23021V   23259.54970992  .00002688  00000-0  23303-3 0  9999,2 55647  69.9994 306.4933 0003449 273.0561  87.0203 14.98327486 33218,6950.201,96.107,574.463,569.669,0.0
